[{"OBJECT_NAME":"WILDFIRE 8","OBJECT_ID":"2023-133M","EPOCH":"2026-03-09T12:22:22.023552","MEAN_MOTION":13.85412559,"ECCENTRICITY":0.00047302,"INCLINATION":80.9917,"RA_OF_ASC_NODE":102.7075,"ARG_OF_PERICENTER":283.6827,"MEAN_ANOMALY":76.3802,"EPHEMERIS_TYPE":0,"CLASSIFICATION_TYPE":"U","NORAD_CAT_ID":57768,"ELEMENT_SET_NO":999,"REV_AT_EPOCH":12723,"BSTAR":-0.00014989994,"MEAN_MOTION_DOT":-1.6e-6,"MEAN_MOTION_DDOT":0},{"OBJECT_NAME":"CZ-6A DEB","OBJECT_ID":"2024-140XQ","EPOCH":"2026-03-09T13:44:38.705280","MEAN_MOTION":14.07494457,"ECCENTRICITY":0.0106363,"INCLINATION":88.95,"RA_OF_ASC_NODE":284.2225,"ARG_OF_PERICENTER":166.7127,"MEAN_ANOMALY":193.6898,"EPHEMERIS_TYPE":0,"CLASSIFICATION_TYPE":"U","NORAD_CAT_ID":61399,"ELEMENT_SET_NO":999,"REV_AT_EPOCH":7684,"BSTAR":0.000244,"MEAN_MOTION_DOT":4.47e-6,"MEAN_MOTION_DDOT":0}]
